CCSDS_OMM_VERS,COMMENT,CREATION_DATE,ORIGINATOR,OBJECT_NAME,OBJECT_ID,CENTER_NAME,REF_FRAME,TIME_SYSTEM,MEAN_ELEMENT_THEORY,EPOCH,MEAN_MOTION,ECCENTRICITY,INCLINATION,RA_OF_ASC_NODE,ARG_OF_PERICENTER,MEAN_ANOMALY,EPHEMERIS_TYPE,CLASSIFICATION_TYPE,NORAD_CAT_ID,ELEMENT_SET_NO,REV_AT_EPOCH,BSTAR,MEAN_MOTION_DOT,MEAN_MOTION_DDOT,SEMIMAJOR_AXIS,PERIOD,APOAPSIS,PERIAPSIS,OBJECT_TYPE,RCS_SIZE,COUNTRY_CODE,LAUNCH_DATE,SITE,DECAY_DATE,FILE,GP_ID,TLE_LINE0,TLE_LINE1,TLE_LINE2
2,GENERATED VIA SPACE-TRACK.ORG API,2021-03-09T21:37:48,18 SPCS,GALILEO-FM3,2012-055A,EARTH,TEME,UTC,SGP4,2021-03-09T03:07:22.699776,1.70473624,0.0003624,55.0227,154.4968,257.158,102.8244,0,U,38857,999,5217,0.0,-3.1e-07,0,29600.364,844.705,23232.956,23211.501,PAYLOAD,LARGE,ESA,2012-10-12,FRGUI,,2978796,173107465,0 GALILEO-FM3,1 38857U 12055A   21068.13012384 -.00000031  00000-0  00000-0 0  9998,2 38857  55.0227 154.4968 0003624 257.1580 102.8244  1.70473624 52174
2,GENERATED VIA SPACE-TRACK.ORG API,2021-03-09T14:26:11,18 SPCS,GALILEO-FM3,2012-055A,EARTH,TEME,UTC,SGP4,2021-03-09T03:07:22.699776,1.70473624,0.0003624,55.0227,154.4968,257.158,102.8244,0,U,38857,999,5231,0.0,-3.1e-07,0,29600.364,844.705,23232.956,23211.501,PAYLOAD,LARGE,ESA,2012-10-12,FRGUI,,2978578,173087121,0 GALILEO-FM3,1 38857U 12055A   21068.13012384 -.00000031  00000-0  00000+0 0  9997,2 38857  55.0227 154.4968 0003624 257.1580 102.8244  1.70473624 52310
2,GENERATED VIA SPACE-TRACK.ORG API,2021-03-10T17:44:03,18 SPCS,GALILEO-FM3,2012-055A,EARTH,TEME,UTC,SGP4,2021-03-10T07:16:45.113088,1.70473653,0.0003672,55.0229,154.4645,257.4876,102.4996,0,U,38857,999,5219,0.0,-2.6e-07,0,29600.36,844.705,23233.094,23211.356,PAYLOAD,LARGE,ESA,2012-10-12,FRGUI,,2979470,173166966,0 GALILEO-FM3,1 38857U 12055A   21069.30329992 -.00000026  00000-0  00000-0 0  9998,2 38857  55.0229 154.4645 0003672 257.4876 102.4996  1.70473653 52196
2,GENERATED VIA SPACE-TRACK.ORG API,2021-03-12T04:07:44,18 SPCS,GALILEO-FM3,2012-055A,EARTH,TEME,UTC,SGP4,2021-03-10T21:21:26.453664,1.70473684,0.0003714,55.0231,154.4484,257.8081,102.1824,0,U,38857,999,5220,0.0,-2.3e-07,0,29600.357,844.705,23233.215,23211.228,PAYLOAD,LARGE,ESA,2012-10-12,FRGUI,,2980394,173250104,0 GALILEO-FM3,1 38857U 12055A   21069.88988951 -.00000023  00000-0  00000-0 0  9994,2 38857  55.0231 154.4484 0003714 257.8081 102.1824  1.70473684 52202
2,GENERATED VIA SPACE-TRACK.ORG API,2021-03-11T18:05:44,18 SPCS,GALILEO-FM3,2012-055A,EARTH,TEME,UTC,SGP4,2021-03-10T21:21:26.475264,1.70473671,0.0003696,55.0231,154.4483,257.7015,102.2891,0,U,38857,999,5220,0.0,-2.3e-07,0,29600.358,844.705,23233.163,23211.283,PAYLOAD,LARGE,ESA,2012-10-12,FRGUI,,2980116,173224053,0 GALILEO-FM3,1 38857U 12055A   21069.88988976 -.00000023  00000-0  00000-0 0  9991,2 38857  55.0231 154.4483 0003696 257.7015 102.2891  1.70473671 52207
2,GENERATED VIA SPACE-TRACK.ORG API,2021-03-13T18:50:59,18 SPCS,GALILEO-FM3,2012-055A,EARTH,TEME,UTC,SGP4,2021-03-13T05:40:12.271296,1.70473723,0.0003769,55.0234,154.3838,258.2972,101.7101,0,U,38857,999,5224,0.0,-7e-08,0,29600.352,844.705,23233.373,23211.061,PAYLOAD,LARGE,ESA,2012-10-12,FRGUI,,2981440,173339635,0 GALILEO-FM3,1 38857U 12055A   21072.23625314 -.00000007  00000-0  00000-0 0  9990,2 38857  55.0234 154.3838 0003769 258.2972 101.7101  1.70473723 52242
2,GENERATED VIA SPACE-TRACK.ORG API,2021-03-13T14:26:12,18 SPCS,GALILEO-FM3,2012-055A,EARTH,TEME,UTC,SGP4,2021-03-13T05:40:12.271296,1.70473723,0.0003769,55.0234,154.3838,258.2972,101.7101,0,U,38857,999,5239,0.0,-7e-08,0,29600.352,844.705,23233.373,23211.061,PAYLOAD,LARGE,ESA,2012-10-12,FRGUI,,2981252,173320233,0 GALILEO-FM3,1 38857U 12055A   21072.23625314 -.00000007  00000-0  00000+0 0  9999,2 38857  55.0234 154.3838 0003769 258.2972 101.7101  1.70473723 52398
2,GENERATED VIA SPACE-TRACK.ORG API,2021-03-14T17:54:18,18 SPCS,GALILEO-FM3,2012-055A,EARTH,TEME,UTC,SGP4,2021-03-13T19:44:53.608416,1.7047375,0.0003804,55.0233,154.3676,258.6011,101.4097,0,U,38857,999,5225,0.0,-4e-08,0,29600.349,844.705,23233.474,23210.954,PAYLOAD,LARGE,ESA,2012-10-12,FRGUI,,2982054,173397917,0 GALILEO-FM3,1 38857U 12055A   21072.82284269 -.00000004  00000-0  00000-0 0  9992,2 38857  55.0233 154.3676 0003804 258.6011 101.4097  1.70473750 52251
2,GENERATED VIA SPACE-TRACK.ORG API,2021-03-17T14:26:12,18 SPCS,GALILEO-FM3,2012-055A,EARTH,TEME,UTC,SGP4,2021-03-17T08:13:00.142464,1.70473774,0.0003935,55.024,154.2708,259.5997,100.421,0,U,38857,999,5246,0.0,6e-08,0,29600.346,844.705,23233.859,23210.563,PAYLOAD,LARGE,ESA,2012-10-12,FRGUI,,2984233,173541974,0 GALILEO-FM3,1 38857U 12055A   21076.34236276  .00000006  00000-0  00000+0 0  9998,2 38857  55.0240 154.2708 0003935 259.5997 100.4210  1.70473774 52467
2,GENERATED VIA SPACE-TRACK.ORG API,2021-03-18T17:47:02,18 SPCS,GALILEO-FM3,2012-055A,EARTH,TEME,UTC,SGP4,2021-03-17T22:17:40.956000,1.70473767,0.0003968,55.0241,154.2547,259.8217,100.1984,0,U,38857,999,5232,0.0,6e-08,0,29600.347,844.705,23233.957,23210.467,PAYLOAD,LARGE,ESA,2012-10-12,FRGUI,,2985639,173632870,0 GALILEO-FM3,1 38857U 12055A   21076.92894625  .00000006  00000-0  00000-0 0  9991,2 38857  55.0241 154.2547 0003968 259.8217 100.1984  1.70473767 52325
2,GENERATED VIA SPACE-TRACK.ORG API,2021-03-19T17:40:37,18 SPCS,GALILEO-FM3,2012-055A,EARTH,TEME,UTC,SGP4,2021-03-19T02:27:02.391264,1.70473765,0.000399,55.0243,154.2224,260.0113,100.007,0,U,38857,999,5234,0.0,8e-08,0,29600.347,844.705,23234.023,23210.402,PAYLOAD,LARGE,ESA,2012-10-12,FRGUI,,2987089,173708690,0 GALILEO-FM3,1 38857U 12055A   21078.10211101  .00000008  00000-0  00000-0 0  9997,2 38857  55.0243 154.2224 0003990 260.0113 100.0070  1.70473765 52348
2,GENERATED VIA SPACE-TRACK.ORG API,2021-03-23T03:18:10,18 SPCS,GALILEO-FM3,2012-055A,EARTH,TEME,UTC,SGP4,2021-03-22T14:55:06.837024,1.70473492,0.0004087,55.0252,154.1258,260.8136,99.1996,0,U,38857,999,5240,0.0,1.2e-07,0,29600.379,844.706,23234.342,23210.146,PAYLOAD,LARGE,ESA,2012-10-12,FRGUI,,2991114,173952604,0 GALILEO-FM3,1 38857U 12055A   21081.62160691  .00000012  00000-0  00000-0 0  9990,2 38857  55.0252 154.1258 0004087 260.8136  99.1996  1.70473492 52404
2,GENERATED VIA SPACE-TRACK.ORG API,2021-03-22T22:26:12,18 SPCS,GALILEO-FM3,2012-055A,EARTH,TEME,UTC,SGP4,2021-03-22T14:55:06.837024,1.70473492,0.0004087,55.0252,154.1258,260.8136,99.1996,0,U,38857,999,5254,0.0,1.2e-07,0,29600.379,844.706,23234.342,23210.146,PAYLOAD,LARGE,ESA,2012-10-12,FRGUI,,2990854,173930486,0 GALILEO-FM3,1 38857U 12055A   21081.62160691  .00000012  00000-0  00000+0 0  9999,2 38857  55.0252 154.1258 0004087 260.8136  99.1996  1.70473492 52549
2,GENERATED VIA SPACE-TRACK.ORG API,2021-03-23T18:38:07,18 SPCS,GALILEO-FM3,2012-055A,EARTH,TEME,UTC,SGP4,2021-03-23T04:59:47.736096,1.70473715,0.0004105,55.0249,154.1093,261.0066,99.0072,0,U,38857,999,5241,0.0,1.3e-07,0,29600.353,844.705,23234.369,23210.067,PAYLOAD,LARGE,ESA,2012-10-12,FRGUI,,2992091,173994878,0 GALILEO-FM3,1 38857U 12055A   21082.20819139  .00000013  00000-0  00000-0 0  9994,2 38857  55.0249 154.1093 0004105 261.0066  99.0072  1.70473715 52416
2,GENERATED VIA SPACE-TRACK.ORG API,2021-03-25T05:18:06,18 SPCS,GALILEO-FM3,2012-055A,EARTH,TEME,UTC,SGP4,2021-03-23T19:04:28.762176,1.70473671,0.0004191,55.0243,154.0932,261.4078,98.6066,0,U,38857,999,5242,0.0,1.4e-07,0,29600.358,844.705,23234.629,23209.818,PAYLOAD,LARGE,ESA,2012-10-12,FRGUI,,2993867,174100655,0 GALILEO-FM3,1 38857U 12055A   21082.79477734  .00000014  00000-0  00000-0 0  9990,2 38857  55.0243 154.0932 0004191 261.4078  98.6066  1.70473671 52423
2,GENERATED VIA SPACE-TRACK.ORG API,2021-03-26T20:40:07,18 SPCS,GALILEO-FM3,2012-055A,EARTH,TEME,UTC,SGP4,2021-03-26T03:23:13.827264,1.70473656,0.0004224,55.0252,154.0286,261.7417,98.2844,0,U,38857,999,5246,0.0,2.5e-07,0,29600.36,844.705,23234.728,23209.722,PAYLOAD,LARGE,ESA,2012-10-12,FRGUI,,2995254,174199205,0 GALILEO-FM3,1 38857U 12055A   21085.14113226  .00000025  00000-0  00000-0 0  9997,2 38857  55.0252 154.0286 0004224 261.7417  98.2844  1.70473656 52469
2,GENERATED VIA SPACE-TRACK.ORG API,2021-03-26T09:26:11,18 SPCS,GALILEO-FM3,2012-055A,EARTH,TEME,UTC,SGP4,2021-03-26T03:23:13.827264,1.70473656,0.0004224,55.0252,154.0286,261.7417,98.2844,0,U,38857,999,5260,0.0,2.5e-07,0,29600.36,844.705,23234.728,23209.722,PAYLOAD,LARGE,ESA,2012-10-12,FRGUI,,2995099,174179406,0 GALILEO-FM3,1 38857U 12055A   21085.14113226  .00000025  00000-0  00000+0 0  9996,2 38857  55.0252 154.0286 0004224 261.7417  98.2844  1.70473656 52605
2,GENERATED VIA SPACE-TRACK.ORG API,2021-03-28T17:29:14,18 SPCS,GALILEO-FM3,2012-055A,EARTH,TEME,UTC,SGP4,2021-03-27T21:37:17.818752,1.70473622,0.0004302,55.0256,153.9802,262.2612,97.7748,0,U,38857,999,5249,0.0,3.4e-07,0,29600.364,844.705,23234.963,23209.495,PAYLOAD,LARGE,ESA,2012-10-12,FRGUI,,2998182,174351883,0 GALILEO-FM3,1 38857U 12055A   21086.90090068  .00000034  00000-0  00000-0 0  9990,2 38857  55.0256 153.9802 0004302 262.2612  97.7748  1.70473622 52498
2,GENERATED VIA SPACE-TRACK.ORG API,2021-03-29T17:21:22,18 SPCS,GALILEO-FM3,2012-055A,EARTH,TEME,UTC,SGP4,2021-03-28T11:41:59.017632,1.70473618,0.0004318,55.0257,153.964,262.3359,97.7026,0,U,38857,999,5250,0.0,3.6e-07,0,29600.364,844.705,23235.011,23209.448,PAYLOAD,LARGE,ESA,2012-10-12,FRGUI,,2999519,174426548,0 GALILEO-FM3,1 38857U 12055A   21087.48748863  .00000036  00000-0  00000-0 0  9999,2 38857  55.0257 153.9640 0004318 262.3359  97.7026  1.70473618 52501
2,GENERATED VIA SPACE-TRACK.ORG API,2021-03-29T14:26:13,18 SPCS,GALILEO-FM3,2012-055A,EARTH,TEME,UTC,SGP4,2021-03-28T11:41:59.017632,1.70473618,0.0004318,55.0257,153.964,262.3359,97.7026,0,U,38857,999,5264,0.0,3.6e-07,0,29600.364,844.705,23235.011,23209.448,PAYLOAD,LARGE,ESA,2012-10-12,FRGUI,,2999156,174401426,0 GALILEO-FM3,1 38857U 12055A   21087.48748863  .00000036  00000-0  00000+0 0  9998,2 38857  55.0257 153.9640 0004318 262.3359  97.7026  1.70473618 52646
